[{"OBJECT_NAME":"ALOS (DAICHI)","OBJECT_ID":"2006-002A","EPOCH":"2026-03-18T15:00:11.644128","MEAN_MOTION":14.69838352,"ECCENTRICITY":7.217e-5,"INCLINATION":98.1234,"RA_OF_ASC_NODE":33.5366,"ARG_OF_PERICENTER":78.6762,"MEAN_ANOMALY":281.4524,"EPHEMERIS_TYPE":0,"CLASSIFICATION_TYPE":"U","NORAD_CAT_ID":28931,"ELEMENT_SET_NO":999,"REV_AT_EPOCH":7479,"BSTAR":0.0002176762,"MEAN_MOTION_DOT":1.251e-5,"MEAN_MOTION_DDOT":0},{"OBJECT_NAME":"H-2A R/B","OBJECT_ID":"2006-002B","EPOCH":"2026-03-18T15:34:05.406816","MEAN_MOTION":15.16612443,"ECCENTRICITY":0.00520849,"INCLINATION":98.2422,"RA_OF_ASC_NODE":225.445,"ARG_OF_PERICENTER":210.2239,"MEAN_ANOMALY":149.5986,"EPHEMERIS_TYPE":0,"CLASSIFICATION_TYPE":"U","NORAD_CAT_ID":28932,"ELEMENT_SET_NO":999,"REV_AT_EPOCH":9579,"BSTAR":0.00040501926,"MEAN_MOTION_DOT":8.115e-5,"MEAN_MOTION_DDOT":0},{"OBJECT_NAME":"RESURS-DK 1","OBJECT_ID":"2006-021A","EPOCH":"2026-03-18T15:50:55.631040","MEAN_MOTION":15.12807863,"ECCENTRICITY":9.661e-5,"INCLINATION":69.9333,"RA_OF_ASC_NODE":213.8165,"ARG_OF_PERICENTER":141.1764,"MEAN_ANOMALY":218.9471,"EPHEMERIS_TYPE":0,"CLASSIFICATION_TYPE":"U","NORAD_CAT_ID":29228,"ELEMENT_SET_NO":999,"REV_AT_EPOCH":8888,"BSTAR":0.00016370787,"MEAN_MOTION_DOT":2.774e-5,"MEAN_MOTION_DDOT":0},{"OBJECT_NAME":"CZ-4B R/B","OBJECT_ID":"2006-046C","EPOCH":"2026-03-18T13:55:34.743072","MEAN_MOTION":15.1699328,"ECCENTRICITY":0.00319065,"INCLINATION":97.5575,"RA_OF_ASC_NODE":122.4651,"ARG_OF_PERICENTER":234.9737,"MEAN_ANOMALY":124.8501,"EPHEMERIS_TYPE":0,"CLASSIFICATION_TYPE":"U","NORAD_CAT_ID":29507,"ELEMENT_SET_NO":999,"REV_AT_EPOCH":6139,"BSTAR":0.00018235876,"MEAN_MOTION_DOT":3.578e-5,"MEAN_MOTION_DDOT":0},{"OBJECT_NAME":"CZ-2C R/B","OBJECT_ID":"2007-010B","EPOCH":"2026-03-18T14:27:46.237536","MEAN_MOTION":14.20249424,"ECCENTRICITY":0.00578254,"INCLINATION":98.3986,"RA_OF_ASC_NODE":190.435,"ARG_OF_PERICENTER":268.1846,"MEAN_ANOMALY":91.2708,"EPHEMERIS_TYPE":0,"CLASSIFICATION_TYPE":"U","NORAD_CAT_ID":31114,"ELEMENT_SET_NO":999,"REV_AT_EPOCH":98098,"BSTAR":7.271313e-5,"MEAN_MOTION_DOT":1.16e-6,"MEAN_MOTION_DDOT":0},{"OBJECT_NAME":"COSMO-SKYMED 1","OBJECT_ID":"2007-023A","EPOCH":"2026-03-18T13:21:58.950720","MEAN_MOTION":14.966087,"ECCENTRICITY":0.00015254,"INCLINATION":97.8881,"RA_OF_ASC_NODE":268.6612,"ARG_OF_PERICENTER":88.5501,"MEAN_ANOMALY":271.5895,"EPHEMERIS_TYPE":0,"CLASSIFICATION_TYPE":"U","NORAD_CAT_ID":31598,"ELEMENT_SET_NO":999,"REV_AT_EPOCH":1623,"BSTAR":0.00026321805,"MEAN_MOTION_DOT":2.939e-5,"MEAN_MOTION_DDOT":0},{"OBJECT_NAME":"COSMOS 2428","OBJECT_ID":"2007-029A","EPOCH":"2026-03-18T14:18:56.011968","MEAN_MOTION":14.12947384,"ECCENTRICITY":0.00094588,"INCLINATION":70.944,"RA_OF_ASC_NODE":184.6496,"ARG_OF_PERICENTER":267.9802,"MEAN_ANOMALY":92.0236,"EPHEMERIS_TYPE":0,"CLASSIFICATION_TYPE":"U","NORAD_CAT_ID":31792,"ELEMENT_SET_NO":999,"REV_AT_EPOCH":96535,"BSTAR":1.4147622e-5,"MEAN_MOTION_DOT":-2.2e-7,"MEAN_MOTION_DDOT":0},{"OBJECT_NAME":"SL-16 R/B","OBJECT_ID":"2007-029B","EPOCH":"2026-03-18T11:05:45.195360","MEAN_MOTION":14.14838001,"ECCENTRICITY":0.00023136,"INCLINATION":70.9757,"RA_OF_ASC_NODE":153.9453,"ARG_OF_PERICENTER":276.3639,"MEAN_ANOMALY":95.6936,"EPHEMERIS_TYPE":0,"CLASSIFICATION_TYPE":"U","NORAD_CAT_ID":31793,"ELEMENT_SET_NO":999,"REV_AT_EPOCH":96661,"BSTAR":0.00020554379,"MEAN_MOTION_DOT":3.49e-6,"MEAN_MOTION_DDOT":0},{"OBJECT_NAME":"KORONAS-FOTON","OBJECT_ID":"2009-003A","EPOCH":"2026-03-18T12:24:08.262720","MEAN_MOTION":15.43532543,"ECCENTRICITY":0.00117597,"INCLINATION":82.4269,"RA_OF_ASC_NODE":266.6984,"ARG_OF_PERICENTER":120.8116,"MEAN_ANOMALY":239.429,"EPHEMERIS_TYPE":0,"CLASSIFICATION_TYPE":"U","NORAD_CAT_ID":33504,"ELEMENT_SET_NO":999,"REV_AT_EPOCH":94710,"BSTAR":0.0002394494,"MEAN_MOTION_DOT":0.00010806,"MEAN_MOTION_DDOT":0},{"OBJECT_NAME":"CZ-2C R/B","OBJECT_ID":"2011-030B","EPOCH":"2026-03-18T14:49:12.350784","MEAN_MOTION":14.81255573,"ECCENTRICITY":0.00516724,"INCLINATION":97.856,"RA_OF_ASC_NODE":34.7029,"ARG_OF_PERICENTER":322.7672,"MEAN_ANOMALY":211.0263,"EPHEMERIS_TYPE":0,"CLASSIFICATION_TYPE":"U","NORAD_CAT_ID":37731,"ELEMENT_SET_NO":999,"REV_AT_EPOCH":79141,"BSTAR":0.00019197581,"MEAN_MOTION_DOT":1.475e-5,"MEAN_MOTION_DDOT":0},{"OBJECT_NAME":"H-2A R/B","OBJECT_ID":"2012-025E","EPOCH":"2026-03-18T15:05:52.520640","MEAN_MOTION":14.95230564,"ECCENTRICITY":0.00432211,"INCLINATION":98.4741,"RA_OF_ASC_NODE":45.3918,"ARG_OF_PERICENTER":284.0836,"MEAN_ANOMALY":75.5581,"EPHEMERIS_TYPE":0,"CLASSIFICATION_TYPE":"U","NORAD_CAT_ID":38341,"ELEMENT_SET_NO":999,"REV_AT_EPOCH":74955,"BSTAR":0.00024709761,"MEAN_MOTION_DOT":2.697e-5,"MEAN_MOTION_DDOT":0},{"OBJECT_NAME":"SHIJIAN-16 (SJ-16)","OBJECT_ID":"2013-057A","EPOCH":"2026-03-18T14:41:27.206880","MEAN_MOTION":14.92385085,"ECCENTRICITY":0.00153228,"INCLINATION":74.974,"RA_OF_ASC_NODE":168.199,"ARG_OF_PERICENTER":89.8015,"MEAN_ANOMALY":270.4929,"EPHEMERIS_TYPE":0,"CLASSIFICATION_TYPE":"U","NORAD_CAT_ID":39358,"ELEMENT_SET_NO":999,"REV_AT_EPOCH":67283,"BSTAR":0.00015703331,"MEAN_MOTION_DOT":1.582e-5,"MEAN_MOTION_DDOT":0},{"OBJECT_NAME":"SL-4 R/B","OBJECT_ID":"2014-021B","EPOCH":"2026-03-17T20:58:21.112608","MEAN_MOTION":15.39450841,"ECCENTRICITY":0.0096816,"INCLINATION":51.6063,"RA_OF_ASC_NODE":297.3446,"ARG_OF_PERICENTER":132.8242,"MEAN_ANOMALY":228.093,"EPHEMERIS_TYPE":0,"CLASSIFICATION_TYPE":"U","NORAD_CAT_ID":39679,"ELEMENT_SET_NO":999,"REV_AT_EPOCH":65753,"BSTAR":0.00027196092,"MEAN_MOTION_DOT":0.0001232,"MEAN_MOTION_DDOT":0},{"OBJECT_NAME":"ALOS-2","OBJECT_ID":"2014-029A","EPOCH":"2026-03-18T12:15:31.698720","MEAN_MOTION":14.79539693,"ECCENTRICITY":0.0001487,"INCLINATION":97.9195,"RA_OF_ASC_NODE":175.9802,"ARG_OF_PERICENTER":93.0566,"MEAN_ANOMALY":267.0816,"EPHEMERIS_TYPE":0,"CLASSIFICATION_TYPE":"U","NORAD_CAT_ID":39766,"ELEMENT_SET_NO":999,"REV_AT_EPOCH":63817,"BSTAR":0.00024857237,"MEAN_MOTION_DOT":1.808e-5,"MEAN_MOTION_DDOT":0},{"OBJECT_NAME":"ASTRO-H (HITOMI)","OBJECT_ID":"2016-012A","EPOCH":"2026-03-18T14:58:24.098592","MEAN_MOTION":15.10062954,"ECCENTRICITY":0.00096222,"INCLINATION":30.9996,"RA_OF_ASC_NODE":298.8917,"ARG_OF_PERICENTER":60.6828,"MEAN_ANOMALY":299.477,"EPHEMERIS_TYPE":0,"CLASSIFICATION_TYPE":"U","NORAD_CAT_ID":41337,"ELEMENT_SET_NO":999,"REV_AT_EPOCH":55358,"BSTAR":0.0001493696,"MEAN_MOTION_DOT":2.588e-5,"MEAN_MOTION_DDOT":0},{"OBJECT_NAME":"HXMT (HUIYAN)","OBJECT_ID":"2017-034A","EPOCH":"2026-03-18T09:36:03.346272","MEAN_MOTION":15.17583981,"ECCENTRICITY":0.00331161,"INCLINATION":43.0155,"RA_OF_ASC_NODE":328.2446,"ARG_OF_PERICENTER":288.9371,"MEAN_ANOMALY":70.7889,"EPHEMERIS_TYPE":0,"CLASSIFICATION_TYPE":"U","NORAD_CAT_ID":42758,"ELEMENT_SET_NO":999,"REV_AT_EPOCH":48386,"BSTAR":0.00023012453,"MEAN_MOTION_DOT":4.533e-5,"MEAN_MOTION_DDOT":0}]
