ALOS (DAICHI)           
1 28931U 06002A   26077.62513477  .00001251  00000+0  21768-3 0  9993
2 28931  98.1234  33.5366 0000721  78.6762 281.4524 14.69838352 74796
H-2A R/B                
1 28932U 06002B   26077.64867369  .00008115  00000+0  40502-3 0  9991
2 28932  98.2422 225.4450 0052084 210.2239 149.5986 15.16612443 95798
RESURS-DK 1             
1 29228U 06021A   26077.66036610  .00002774  00000+0  16371-3 0  9992
2 29228  69.9333 213.8165 0000966 141.1764 218.9471 15.12807863 88884
CZ-4B R/B               
1 29507U 06046C   26077.58026323  .00003578  00000+0  18236-3 0  9995
2 29507  97.5575 122.4651 0031906 234.9737 124.8501 15.16993280 61392
CZ-2C R/B               
1 31114U 07010B   26077.60261849  .00000116  00000+0  72713-4 0  9997
2 31114  98.3986 190.4350 0057825 268.1846  91.2708 14.20249424980982
COSMO-SKYMED 1          
1 31598U 07023A   26077.55693230  .00002939  00000+0  26322-3 0  9993
2 31598  97.8881 268.6612 0001525  88.5501 271.5895 14.96608700 16230
COSMOS 2428             
1 31792U 07029A   26077.59648162 -.00000022  00000+0  14148-4 0  9999
2 31792  70.9440 184.6496 0009458 267.9802  92.0236 14.12947384965359
SL-16 R/B               
1 31793U 07029B   26077.46232865  .00000349  00000+0  20554-3 0  9993
2 31793  70.9757 153.9453 0002313 276.3639  95.6936 14.14838001966611
KORONAS-FOTON           
1 33504U 09003A   26077.51676230  .00010806  00000+0  23945-3 0  9999
2 33504  82.4269 266.6984 0011759 120.8116 239.4290 15.43532543947106
CZ-2C R/B               
1 37731U 11030B   26077.61750406  .00001475  00000+0  19198-3 0  9994
2 37731  97.8560  34.7029 0051672 322.7672 211.0263 14.81255573791411
H-2A R/B                
1 38341U 12025E   26077.62908010  .00002697  00000+0  24710-3 0  9997
2 38341  98.4741  45.3918 0043221 284.0836  75.5581 14.95230564749557
SHIJIAN-16 (SJ-16)      
1 39358U 13057A   26077.61212045  .00001582  00000+0  15703-3 0  9991
2 39358  74.9740 168.1990 0015322  89.8015 270.4929 14.92385085672833
SL-4 R/B                
1 39679U 14021B   26076.87385547  .00012320  00000+0  27196-3 0  9995
2 39679  51.6063 297.3446 0096816 132.8242 228.0930 15.39450841657534
ALOS-2                  
1 39766U 14029A   26077.51078355  .00001808  00000+0  24857-3 0  9998
2 39766  97.9195 175.9802 0001487  93.0566 267.0816 14.79539693638175
ASTRO-H (HITOMI)        
1 41337U 16012A   26077.62389003  .00002588  00000+0  14937-3 0  9990
2 41337  30.9996 298.8917 0009622  60.6828 299.4770 15.10062954553586
HXMT (HUIYAN)           
1 42758U 17034A   26077.40003873  .00004533  00000+0  23012-3 0  9993
2 42758  43.0155 328.2446 0033116 288.9371  70.7889 15.17583981483863
